OBJECT_NAME,OBJECT_ID,EPOCH,MEAN_MOTION,ECCENTRICITY,INCLINATION,RA_OF_ASC_NODE,ARG_OF_PERICENTER,MEAN_ANOMALY,EPHEMERIS_TYPE,CLASSIFICATION_TYPE,NORAD_CAT_ID,ELEMENT_SET_NO,REV_AT_EPOCH,BSTAR,MEAN_MOTION_DOT,MEAN_MOTION_DDOT
ONEWEB-0602,2022-166AA,2026-06-25T04:11:06.196992,13.21826695,.0001769,87.9249,242.4116,98.0476,262.0858,0,U,54666,999,17260,-.11449E-3,-.34E-6,0
ONEWEB-0603,2022-166AB,2026-06-25T04:19:35.541408,13.21826936,.0001988,87.9259,242.3682,96.2769,263.8592,0,U,54667,999,17253,-.86979E-4,-.23E-6,0
ONEWEB-0604,2022-166AC,2026-06-25T04:02:36.342816,13.21828073,.0002081,87.9260,242.3864,100.4648,259.6721,0,U,54668,999,17249,-.66914E-4,-.15E-6,0
ONEWEB-0605,2022-166AD,2026-06-25T03:52:56.859744,13.21827337,.0002449,87.9256,242.4005,84.8207,275.3207,0,U,54669,999,17256,-.75789E-4,-.18E-6,0
ONEWEB-0606,2022-166AE,2026-06-25T04:24:25.949088,13.21827580,.0002148,87.9250,242.4084,103.0524,257.0850,0,U,54670,999,17262,.17687E-3,.86E-6,0
ONEWEB-0607,2022-166AF,2026-06-25T03:35:59.504928,13.21825174,.0001909,87.9257,242.3867,95.2487,264.8865,0,U,54671,999,17259,-.22625E-4,.4E-7,0
ONEWEB-0608,2022-166AG,2026-06-25T03:45:38.665728,13.21827315,.0002107,87.9263,242.3824,83.2062,276.9311,0,U,54672,999,17260,.18563E-3,.9E-6,0
ONEWEB-0610,2022-166AH,2026-06-24T03:39:34.510464,13.21824655,.00018588,87.9248,242.5955,80.1438,279.9906,0,U,54673,999,17237,.6755153E-4,.41E-6,0
ONEWEB-0611,2022-166AJ,2026-06-25T03:06:53.864640,13.21824982,.000212,87.9247,242.3970,101.7073,258.4299,0,U,54674,999,17249,.17449E-3,.85E-6,0
ONEWEB-0612,2022-166AK,2026-06-25T03:26:18.527136,13.21825067,.0001914,87.9267,242.3905,92.4041,267.7312,0,U,54675,999,17248,.16364E-3,.81E-6,0
ONEWEB-0615,2022-166AL,2026-06-25T02:57:14.067936,13.21827076,.0001997,87.9250,242.4086,105.9360,254.1994,0,U,54676,999,17249,-.15437E-3,-.51E-6,0
ONEWEB-0655,2022-166AM,2026-06-25T04:12:19.230048,13.21827177,.000178,87.9251,242.3994,96.7963,263.3373,0,U,54677,999,17249,-.81444E-4,-.21E-6,0
ONEWEB-0659,2022-166AN,2026-06-23T21:43:38.140320,13.21723885,.00029761,87.9206,242.6503,100.5030,259.6439,0,U,54678,999,17241,-.30697555E-1,-.12628E-3,0
ONEWEB-0685,2022-166AP,2026-06-25T04:36:29.126592,13.21847566,.000193,87.9248,242.3874,88.0020,272.1335,0,U,54679,999,17247,-.78374E-4,-.19E-6,0
ONEWEB-0712,2022-166AQ,2026-06-25T04:36:02.416032,13.16594393,.000156,87.9091,227.1853,98.0529,262.0779,0,U,54680,999,17311,-.40786E-5,.11E-6,0
ONEWEB-0714,2022-166AR,2026-06-25T04:43:48.777312,13.21824723,.000179,87.9246,242.3841,102.4997,257.6338,0,U,54681,999,17259,-.86332E-4,-.23E-6,0
ONEWEB-0532,2023-004A,2026-06-25T00:08:20.141088,13.17647765,.0002206,87.9130,4.3088,86.0867,274.0516,0,U,55140,999,16861,.2028E-3,.92E-6,0
ONEWEB-0533,2023-004B,2026-06-25T00:07:01.969824,13.12444378,.0001745,87.8947,349.1154,86.3036,273.8292,0,U,55141,999,16908,.9957E-3,.371E-5,0
ONEWEB-0541,2023-004C,2026-06-25T02:48:42.243840,13.11414144,.0001986,87.8889,19.4797,90.7947,269.3408,0,U,55142,999,16698,-.50237E-3,-.165E-5,0
ONEWEB-0543,2023-004D,2026-06-24T03:28:05.983680,13.18685835,.00016187,87.9167,334.0847,96.7843,263.3473,0,U,55143,999,17061,-.471413E-5,.11E-6,0
ONEWEB-0544,2023-004E,2026-06-24T23:20:16.196352,13.18686460,.0001809,87.9165,333.9197,101.2003,258.9332,0,U,55144,999,17072,-.55147E-4,-.9E-7,0
ONEWEB-0560,2023-004F,2026-06-25T04:38:19.861152,13.18687758,.0001729,87.9169,333.8652,103.7368,256.3956,0,U,55145,999,17076,.23541E-3,.106E-5,0
ONEWEB-0565,2023-004G,2026-06-25T04:28:38.366688,13.18685007,.0002158,87.9159,333.8937,101.8262,258.3112,0,U,55146,999,17075,-.85179E-4,-.21E-6,0
ONEWEB-0567,2023-004H,2026-06-25T04:18:55.622016,13.18685536,.0002027,87.9167,333.8799,103.8136,256.3222,0,U,55147,999,17075,.54134E-4,.34E-6,0
ONEWEB-0569,2023-004J,2026-06-25T03:49:08.795712,13.13470028,.0002008,87.8967,318.6327,124.7443,235.3875,0,U,55148,999,17122,.96222E-3,.364E-5,0
ONEWEB-0570,2023-004K,2026-06-25T04:06:46.596096,13.18685057,.0002262,87.9164,333.8793,91.7463,268.3928,0,U,55149,999,17074,.94067E-4,.5E-6,0
ONEWEB-0571,2023-004L,2026-06-25T03:57:03.696768,13.18684869,.0002657,87.9168,333.8801,120.2375,239.9020,0,U,55150,999,17075,.70337E-4,.41E-6,0
ONEWEB-0572,2023-004M,2026-06-25T00:53:18.286944,13.17649405,.0002024,87.9129,4.3034,93.8037,266.3326,0,U,55151,999,16851,.14048E-3,.67E-6,0
ONEWEB-0573,2023-004N,2026-06-25T03:47:20.887296,13.18686962,.0002496,87.9167,333.8829,111.0439,249.0960,0,U,55152,999,17074,.18464E-3,.86E-6,0
ONEWEB-0588,2023-004P,2026-06-25T03:37:38.674848,13.18686137,.0002372,87.9165,333.8842,92.9950,267.1453,0,U,55153,999,17074,.18491E-3,.86E-6,0
