ONEWEB-0602             
1 54666U 22166AA  26176.17437728 -.00000034  00000+0 -11449-3 0  9995
2 54666  87.9249 242.4116 0001769  98.0476 262.0858 13.21826695172605
ONEWEB-0603             
1 54667U 22166AB  26176.18027247 -.00000023  00000+0 -86979-4 0  9997
2 54667  87.9259 242.3682 0001988  96.2769 263.8592 13.21826936172536
ONEWEB-0604             
1 54668U 22166AC  26176.16847619 -.00000015  00000+0 -66914-4 0  9997
2 54668  87.9260 242.3864 0002081 100.4648 259.6721 13.21828073172496
ONEWEB-0605             
1 54669U 22166AD  26176.16176921 -.00000018  00000+0 -75789-4 0  9992
2 54669  87.9256 242.4005 0002449  84.8207 275.3207 13.21827337172568
ONEWEB-0606             
1 54670U 22166AE  26176.18363367  .00000086  00000+0  17687-3 0  9993
2 54670  87.9250 242.4084 0002148 103.0524 257.0850 13.21827580172621
ONEWEB-0607             
1 54671U 22166AF  26176.14999427  .00000004  00000+0 -22625-4 0  9992
2 54671  87.9257 242.3867 0001909  95.2487 264.8865 13.21825174172596
ONEWEB-0608             
1 54672U 22166AG  26176.15669752  .00000090  00000+0  18563-3 0  9998
2 54672  87.9263 242.3824 0002107  83.2062 276.9311 13.21827315172605
ONEWEB-0610             
1 54673U 22166AH  26175.15248276  .00000041  00000+0  67552-4 0  9991
2 54673  87.9248 242.5955 0001858  80.1438 279.9906 13.21824655172372
ONEWEB-0611             
1 54674U 22166AJ  26176.12979010  .00000085  00000+0  17449-3 0  9994
2 54674  87.9247 242.3970 0002120 101.7073 258.4299 13.21824982172498
ONEWEB-0612             
1 54675U 22166AK  26176.14326999  .00000081  00000+0  16364-3 0  9990
2 54675  87.9267 242.3905 0001914  92.4041 267.7312 13.21825067172483
ONEWEB-0615             
1 54676U 22166AL  26176.12307949 -.00000051  00000+0 -15437-3 0  9992
2 54676  87.9250 242.4086 0001997 105.9360 254.1994 13.21827076172491
ONEWEB-0655             
1 54677U 22166AM  26176.17522257 -.00000021  00000+0 -81444-4 0  9998
2 54677  87.9251 242.3994 0001780  96.7963 263.3373 13.21827177172491
ONEWEB-0659             
1 54678U 22166AN  26174.90530255 -.00012628  00000+0 -30698-1 0  9993
2 54678  87.9206 242.6503 0002976 100.5030 259.6439 13.21723885172412
ONEWEB-0685             
1 54679U 22166AP  26176.19200378 -.00000019  00000+0 -78374-4 0  9994
2 54679  87.9248 242.3874 0001930  88.0020 272.1335 13.21847566172479
ONEWEB-0712             
1 54680U 22166AQ  26176.19169463  .00000011  00000+0 -40786-5 0  9993
2 54680  87.9091 227.1853 0001560  98.0529 262.0779 13.16594393173112
ONEWEB-0714             
1 54681U 22166AR  26176.19709233 -.00000023  00000+0 -86332-4 0  9999
2 54681  87.9246 242.3841 0001790 102.4997 257.6338 13.21824723172596
ONEWEB-0532             
1 55140U 23004A   26176.00578867  .00000092  00000+0  20280-3 0  9992
2 55140  87.9130   4.3088 0002206  86.0867 274.0516 13.17647765168617
ONEWEB-0533             
1 55141U 23004B   26176.00488391  .00000371  00000+0  99570-3 0  9993
2 55141  87.8947 349.1154 0001745  86.3036 273.8292 13.12444378169085
ONEWEB-0541             
1 55142U 23004C   26176.11715560 -.00000165  00000+0 -50237-3 0  9997
2 55142  87.8889  19.4797 0001986  90.7947 269.3408 13.11414144166980
ONEWEB-0543             
1 55143U 23004D   26175.14451370  .00000011  00000+0 -47141-5 0  9997
2 55143  87.9167 334.0847 0001618  96.7843 263.3473 13.18685835170611
ONEWEB-0544             
1 55144U 23004E   26175.97240968 -.00000009  00000+0 -55147-4 0  9990
2 55144  87.9165 333.9197 0001809 101.2003 258.9332 13.18686460170729
ONEWEB-0560             
1 55145U 23004F   26176.19328543  .00000106  00000+0  23541-3 0  9990
2 55145  87.9169 333.8652 0001729 103.7368 256.3956 13.18687758170760
ONEWEB-0565             
1 55146U 23004G   26176.18655517 -.00000021  00000+0 -85179-4 0  9998
2 55146  87.9159 333.8937 0002158 101.8262 258.3112 13.18685007170755
ONEWEB-0567             
1 55147U 23004H   26176.17981044  .00000034  00000+0  54134-4 0  9994
2 55147  87.9167 333.8799 0002027 103.8136 256.3222 13.18685536170755
ONEWEB-0569             
1 55148U 23004J   26176.15912958  .00000364  00000+0  96222-3 0  9990
2 55148  87.8967 318.6327 0002008 124.7443 235.3875 13.13470028171220
ONEWEB-0570             
1 55149U 23004K   26176.17137264  .00000050  00000+0  94067-4 0  9990
2 55149  87.9164 333.8793 0002262  91.7463 268.3928 13.18685057170740
ONEWEB-0571             
1 55150U 23004L   26176.16462612  .00000041  00000+0  70337-4 0  9993
2 55150  87.9168 333.8801 0002657 120.2375 239.9020 13.18684869170752
ONEWEB-0572             
1 55151U 23004M   26176.03701721  .00000067  00000+0  14048-3 0  9991
2 55151  87.9129   4.3034 0002024  93.8037 266.3326 13.17649405168516
ONEWEB-0573             
1 55152U 23004N   26176.15788064  .00000086  00000+0  18464-3 0  9997
2 55152  87.9167 333.8829 0002496 111.0439 249.0960 13.18686962170743
ONEWEB-0588             
1 55153U 23004P   26176.15114207  .00000086  00000+0  18491-3 0  9990
2 55153  87.9165 333.8842 0002372  92.9950 267.1453 13.18686137170747
